CCSDS_OMM_VERS = 2.0
CREATION_DATE  = 
ORIGINATOR     = 

OBJECT_NAME    = SL-3 R/B
OBJECT_ID      = 1982-079B
CENTER_NAME    = EARTH
REF_FRAME      = TEME
TIME_SYSTEM    = UTC
MEAN_ELEMENT_THEORY = SGP/SGP4

EPOCH          = 2026-01-11T05:32:23.688672
MEAN_MOTION    = 15.24001981
ECCENTRICITY   = .00256296
INCLINATION    = 81.1461
RA_OF_ASC_NODE = 260.8906
ARG_OF_PERICENTER = 3.4202
MEAN_ANOMALY   = 356.7200

EPHEMERIS_TYPE = 0
CLASSIFICATION_TYPE = U
NORAD_CAT_ID   = 13403
ELEMENT_SET_NO = 999
REV_AT_EPOCH   = 36894
BSTAR          = .27823331E-3
MEAN_MOTION_DOT = .6826E-4
MEAN_MOTION_DDOT = 0

CCSDS_OMM_VERS = 2.0
CREATION_DATE  = 
ORIGINATOR     = 

OBJECT_NAME    = SL-14 R/B
OBJECT_ID      = 1982-092B
CENTER_NAME    = EARTH
REF_FRAME      = TEME
TIME_SYSTEM    = UTC
MEAN_ELEMENT_THEORY = SGP/SGP4

EPOCH          = 2026-01-11T06:01:03.338976
MEAN_MOTION    = 14.86591077
ECCENTRICITY   = .00215066
INCLINATION    = 82.5668
RA_OF_ASC_NODE = 195.1107
ARG_OF_PERICENTER = 129.1694
MEAN_ANOMALY   = 43.4813

EPHEMERIS_TYPE = 0
CLASSIFICATION_TYPE = U
NORAD_CAT_ID   = 13553
ELEMENT_SET_NO = 999
REV_AT_EPOCH   = 32039
BSTAR          = .62014905E-4
MEAN_MOTION_DOT = .577E-5
MEAN_MOTION_DDOT = 0

CCSDS_OMM_VERS = 2.0
CREATION_DATE  = 
ORIGINATOR     = 

OBJECT_NAME    = SL-3 R/B
OBJECT_ID      = 1983-010B
CENTER_NAME    = EARTH
REF_FRAME      = TEME
TIME_SYSTEM    = UTC
MEAN_ELEMENT_THEORY = SGP/SGP4

EPOCH          = 2026-01-11T04:42:48.609216
MEAN_MOTION    = 15.44397572
ECCENTRICITY   = .00162125
INCLINATION    = 81.1035
RA_OF_ASC_NODE = 72.6385
ARG_OF_PERICENTER = 244.7106
MEAN_ANOMALY   = 115.2459

EPHEMERIS_TYPE = 0
CLASSIFICATION_TYPE = U
NORAD_CAT_ID   = 13819
ELEMENT_SET_NO = 999
REV_AT_EPOCH   = 34906
BSTAR          = .34452682E-3
MEAN_MOTION_DOT = .1603E-3
MEAN_MOTION_DDOT = 0

CCSDS_OMM_VERS = 2.0
CREATION_DATE  = 
ORIGINATOR     = 

OBJECT_NAME    = SL-3 R/B
OBJECT_ID      = 1983-075B
CENTER_NAME    = EARTH
REF_FRAME      = TEME
TIME_SYSTEM    = UTC
MEAN_ELEMENT_THEORY = SGP/SGP4

EPOCH          = 2026-01-11T05:23:03.018336
MEAN_MOTION    = 15.36860693
ECCENTRICITY   = .0024477
INCLINATION    = 97.6120
RA_OF_ASC_NODE = 13.7136
ARG_OF_PERICENTER = 76.5208
MEAN_ANOMALY   = 283.8761

EPHEMERIS_TYPE = 0
CLASSIFICATION_TYPE = U
NORAD_CAT_ID   = 14208
ELEMENT_SET_NO = 999
REV_AT_EPOCH   = 32132
BSTAR          = .36984693E-3
MEAN_MOTION_DOT = .13381E-3
MEAN_MOTION_DDOT = 0

CCSDS_OMM_VERS = 2.0
CREATION_DATE  = 
ORIGINATOR     = 

OBJECT_NAME    = COSMOS 1536
OBJECT_ID      = 1984-013A
CENTER_NAME    = EARTH
REF_FRAME      = TEME
TIME_SYSTEM    = UTC
MEAN_ELEMENT_THEORY = SGP/SGP4

EPOCH          = 2026-01-10T20:26:51.775296
MEAN_MOTION    = 15.22962687
ECCENTRICITY   = .0015545
INCLINATION    = 82.5458
RA_OF_ASC_NODE = 165.2843
ARG_OF_PERICENTER = 123.3921
MEAN_ANOMALY   = 236.8805

EPHEMERIS_TYPE = 0
CLASSIFICATION_TYPE = U
NORAD_CAT_ID   = 14699
ELEMENT_SET_NO = 999
REV_AT_EPOCH   = 26381
BSTAR          = .26688204E-3
MEAN_MOTION_DOT = .632E-4
MEAN_MOTION_DDOT = 0

CCSDS_OMM_VERS = 2.0
CREATION_DATE  = 
ORIGINATOR     = 

OBJECT_NAME    = SL-14 R/B
OBJECT_ID      = 1984-027B
CENTER_NAME    = EARTH
REF_FRAME      = TEME
TIME_SYSTEM    = UTC
MEAN_ELEMENT_THEORY = SGP/SGP4

EPOCH          = 2026-01-11T06:04:26.958720
MEAN_MOTION    = 14.85912517
ECCENTRICITY   = .00184322
INCLINATION    = 82.5432
RA_OF_ASC_NODE = 298.8816
ARG_OF_PERICENTER = 158.9718
MEAN_ANOMALY   = 201.2261

EPHEMERIS_TYPE = 0
CLASSIFICATION_TYPE = U
NORAD_CAT_ID   = 14820
ELEMENT_SET_NO = 999
REV_AT_EPOCH   = 23910
BSTAR          = .58307751E-4
MEAN_MOTION_DOT = .534E-5
MEAN_MOTION_DDOT = 0

CCSDS_OMM_VERS = 2.0
CREATION_DATE  = 
ORIGINATOR     = 

OBJECT_NAME    = SL-8 R/B
OBJECT_ID      = 1985-006B
CENTER_NAME    = EARTH
REF_FRAME      = TEME
TIME_SYSTEM    = UTC
MEAN_ELEMENT_THEORY = SGP/SGP4

EPOCH          = 2026-01-11T07:57:27.701568
MEAN_MOTION    = 14.37744169
ECCENTRICITY   = .00197305
INCLINATION    = 74.0461
RA_OF_ASC_NODE = 6.6865
ARG_OF_PERICENTER = 293.8292
MEAN_ANOMALY   = 167.8963

EPHEMERIS_TYPE = 0
CLASSIFICATION_TYPE = U
NORAD_CAT_ID   = 15483
ELEMENT_SET_NO = 999
REV_AT_EPOCH   = 14578
BSTAR          = .11900057E-3
MEAN_MOTION_DOT = .332E-5
MEAN_MOTION_DDOT = 0

CCSDS_OMM_VERS = 2.0
CREATION_DATE  = 
ORIGINATOR     = 

OBJECT_NAME    = SL-12 R/B(2)
OBJECT_ID      = 1985-042D
CENTER_NAME    = EARTH
REF_FRAME      = TEME
TIME_SYSTEM    = UTC
MEAN_ELEMENT_THEORY = SGP/SGP4

EPOCH          = 2026-01-11T07:31:39.433440
MEAN_MOTION    = 14.21961601
ECCENTRICITY   = .00365804
INCLINATION    = 71.1064
RA_OF_ASC_NODE = 208.9428
ARG_OF_PERICENTER = 217.8277
MEAN_ANOMALY   = 315.7817

EPHEMERIS_TYPE = 0
CLASSIFICATION_TYPE = U
NORAD_CAT_ID   = 15772
ELEMENT_SET_NO = 999
REV_AT_EPOCH   = 10623
BSTAR          = .77569833E-4
MEAN_MOTION_DOT = .125E-5
MEAN_MOTION_DDOT = 0

CCSDS_OMM_VERS = 2.0
CREATION_DATE  = 
ORIGINATOR     = 

OBJECT_NAME    = SL-14 R/B
OBJECT_ID      = 1985-069B
CENTER_NAME    = EARTH
REF_FRAME      = TEME
TIME_SYSTEM    = UTC
MEAN_ELEMENT_THEORY = SGP/SGP4

EPOCH          = 2026-01-11T04:30:43.991424
MEAN_MOTION    = 14.86362420
ECCENTRICITY   = .00194455
INCLINATION    = 82.5262
RA_OF_ASC_NODE = 79.0176
ARG_OF_PERICENTER = 27.2936
MEAN_ANOMALY   = 332.9298

EPHEMERIS_TYPE = 0
CLASSIFICATION_TYPE = U
NORAD_CAT_ID   = 15945
ELEMENT_SET_NO = 999
REV_AT_EPOCH   = 16429
BSTAR          = .50383396E-4
MEAN_MOTION_DOT = .47E-5
MEAN_MOTION_DDOT = 0

CCSDS_OMM_VERS = 2.0
CREATION_DATE  = 
ORIGINATOR     = 

OBJECT_NAME    = SL-16 R/B
OBJECT_ID      = 1985-097B
CENTER_NAME    = EARTH
REF_FRAME      = TEME
TIME_SYSTEM    = UTC
MEAN_ELEMENT_THEORY = SGP/SGP4

EPOCH          = 2026-01-11T03:57:48.737952
MEAN_MOTION    = 14.16591799
ECCENTRICITY   = .00084457
INCLINATION    = 71.0027
RA_OF_ASC_NODE = 261.6565
ARG_OF_PERICENTER = 328.7740
MEAN_ANOMALY   = 145.9514

EPHEMERIS_TYPE = 0
CLASSIFICATION_TYPE = U
NORAD_CAT_ID   = 16182
ELEMENT_SET_NO = 999
REV_AT_EPOCH   = 7908
BSTAR          = .96874893E-4
MEAN_MOTION_DOT = .145E-5
MEAN_MOTION_DDOT = 0

CCSDS_OMM_VERS = 2.0
CREATION_DATE  = 
ORIGINATOR     = 

OBJECT_NAME    = SL-14 R/B
OBJECT_ID      = 1986-006B
CENTER_NAME    = EARTH
REF_FRAME      = TEME
TIME_SYSTEM    = UTC
MEAN_ELEMENT_THEORY = SGP/SGP4

EPOCH          = 2026-01-11T07:32:42.596160
MEAN_MOTION    = 14.86717948
ECCENTRICITY   = .00782575
INCLINATION    = 82.5288
RA_OF_ASC_NODE = 313.7259
ARG_OF_PERICENTER = 102.6044
MEAN_ANOMALY   = 258.3939

EPHEMERIS_TYPE = 0
CLASSIFICATION_TYPE = U
NORAD_CAT_ID   = 16496
ELEMENT_SET_NO = 999
REV_AT_EPOCH   = 14068
BSTAR          = .77863382E-4
MEAN_MOTION_DOT = .76E-5
MEAN_MOTION_DDOT = 0

CCSDS_OMM_VERS = 2.0
CREATION_DATE  = 
ORIGINATOR     = 

OBJECT_NAME    = COSMOS 1743
OBJECT_ID      = 1986-034A
CENTER_NAME    = EARTH
REF_FRAME      = TEME
TIME_SYSTEM    = UTC
MEAN_ELEMENT_THEORY = SGP/SGP4

EPOCH          = 2026-01-11T07:00:32.667264
MEAN_MOTION    = 15.54213070
ECCENTRICITY   = .00052224
INCLINATION    = 82.5352
RA_OF_ASC_NODE = 133.8530
ARG_OF_PERICENTER = 139.6447
MEAN_ANOMALY   = 220.5195

EPHEMERIS_TYPE = 0
CLASSIFICATION_TYPE = U
NORAD_CAT_ID   = 16719
ELEMENT_SET_NO = 999
REV_AT_EPOCH   = 17132
BSTAR          = .60633388E-3
MEAN_MOTION_DOT = .39674E-3
MEAN_MOTION_DDOT = 0

