SL-3 R/B                
1 13403U 82079B   26011.23082973  .00006826  00000+0  27823-3 0  9997
2 13403  81.1461 260.8906 0025629   3.4202 356.7200 15.24001981368944
SL-14 R/B               
1 13553U 82092B   26011.25073309  .00000577  00000+0  62015-4 0  9993
2 13553  82.5668 195.1107 0021506 129.1694  43.4813 14.86591077320392
SL-3 R/B                
1 13819U 83010B   26011.19639594  .00016030  00000+0  34453-3 0  9991
2 13819  81.1035  72.6385 0016212 244.7106 115.2459 15.44397572349065
SL-3 R/B                
1 14208U 83075B   26011.22434049  .00013381  00000+0  36985-3 0  9995
2 14208  97.6120  13.7136 0024477  76.5208 283.8761 15.36860693321328
COSMOS 1536             
1 14699U 84013A   26010.85198814  .00006320  00000+0  26688-3 0  9991
2 14699  82.5458 165.2843 0015545 123.3921 236.8805 15.22962687263813
SL-14 R/B               
1 14820U 84027B   26011.25308980  .00000534  00000+0  58308-4 0  9990
2 14820  82.5432 298.8816 0018432 158.9718 201.2261 14.85912517239102
SL-8 R/B                
1 15483U 85006B   26011.33157062  .00000332  00000+0  11900-3 0  9998
2 15483  74.0461   6.6865 0019730 293.8292 167.8963 14.37744169145782
SL-12 R/B(2)            
1 15772U 85042D   26011.31365085  .00000125  00000+0  77570-4 0  9999
2 15772  71.1064 208.9428 0036580 217.8277 315.7817 14.21961601106237
SL-14 R/B               
1 15945U 85069B   26011.18800916  .00000470  00000+0  50383-4 0  9998
2 15945  82.5262  79.0176 0019445  27.2936 332.9298 14.86362420164297
SL-16 R/B               
1 16182U 85097B   26011.16514743  .00000145  00000+0  96875-4 0  9996
2 16182  71.0027 261.6565 0008445 328.7740 145.9514 14.16591799 79085
SL-14 R/B               
1 16496U 86006B   26011.31438190  .00000760  00000+0  77863-4 0  9992
2 16496  82.5288 313.7259 0078257 102.6044 258.3939 14.86717948140680
COSMOS 1743             
1 16719U 86034A   26011.29204476  .00039674  00000+0  60633-3 0  9998
2 16719  82.5352 133.8530 0005222 139.6447 220.5195 15.54213070171325
